STARLINK-31981          
1 60035U 24111V   26054.26880369  .00001195  00000+0  52458-4 0  9995
2 60035  53.1605 142.7444 0001157  80.6459 279.4673 15.30205126 96758
STARLINK-31985          
1 60036U 24111W   26054.52692268 -.00002785  00000+0 -82005-4 0  9993
2 60036  53.1614 141.5117 0001160  79.7396 280.3736 15.30170235 96805
STARLINK-31918          
1 60037U 24111X   26054.49734761 -.00000092  00000+0  90226-5 0  9998
2 60037  53.1595 141.3274 0001075  84.5256 275.5867 15.30198373 96792
STARLINK-11129 [DTC]    
1 60038U 24112A   26054.79139987  .00003305  00000+0  32156-4 0  9998
2 60038  53.1591 335.1114 0001199  65.5501 294.5642 15.69690221 98799
STARLINK-11140 [DTC]    
1 60039U 24112B   26054.78649630  .00003173  00000+0  31069-4 0  9994
2 60039  53.1569 335.0816 0001223  90.3848 269.7310 15.69685836 98793
STARLINK-11122 [DTC]    
1 60040U 24112C   26054.08122235 -.00000155  00000+0  35773-5 0  9991
2 60040  53.1571 338.4998 0001252  82.7565 277.3595 15.69710453 98681
STARLINK-11149 [DTC]    
1 60041U 24112D   26054.20365201 -.00000192  00000+0  32664-5 0  9995
2 60041  53.1579 337.8363 0000851 114.7680 245.3426 15.69714605 98701
STARLINK-11120 [DTC]    
1 60042U 24112E   26054.19875063 -.00001602  00000+0 -83645-5 0  9999
2 60042  53.1580 337.8033 0001080 120.2743 239.8382 15.69710162 98708
STARLINK-11086 [DTC]    
1 60043U 24112F   26054.76687117  .00000867  00000+0  12024-4 0  9996
2 60043  53.1587 334.9486 0001198  96.0961 264.0194 15.69694321 98796
STARLINK-11148 [DTC]    
1 60044U 24112G   26054.76196877 -.00000381  00000+0  17180-5 0  9996
2 60044  53.1587 334.9129 0001389 132.8022 227.3113 15.69696057 98791
STARLINK-11116 [DTC]    
1 60045U 24112H   26054.18400233  .00009876  00000+0  86261-4 0  9999
2 60045  53.1588 337.7105 0001312  90.4748 269.6421 15.69714251 98707
STARLINK-11155 [DTC]    
1 60046U 24112J   26054.49748503 -.00001636  00000+0 -86489-5 0  9990
2 60046  53.1582 336.1051 0001228  72.7687 287.3466 15.69698426 98752
STARLINK-11163 [DTC]    
1 60047U 24112K   26054.74725745  .00003105  00000+0  30523-4 0  9990
2 60047  53.1600 334.8207 0001424  68.3693 291.7476 15.69675364 98798
STARLINK-11135 [DTC]    
1 60048U 24112L   26054.47785725 -.00002025  00000+0 -11856-4 0  9995
2 60048  53.1589 335.9941 0001231 112.1745 247.9403 15.69710194 98754
STARLINK-11151 [DTC]    
1 60049U 24112M   26054.48766938 -.00001608  00000+0 -84220-5 0  9994
2 60049  53.1578 336.0411 0001152  74.4004 285.7141 15.69704337 98758
STARLINK-11137 [DTC]    
1 60050U 24112N   26054.80110107  .00004894  00000+0  45259-4 0  9999
2 60050  53.1593 334.4344 0001362 103.9072 256.2098 15.69695881 98803
