[{"OBJECT_NAME":"STARLINK-31981","OBJECT_ID":"2024-111V","EPOCH":"2026-02-23T06:27:04.638816","MEAN_MOTION":15.30205126,"ECCENTRICITY":0.0001157,"INCLINATION":53.1605,"RA_OF_ASC_NODE":142.7444,"ARG_OF_PERICENTER":80.6459,"MEAN_ANOMALY":279.4673,"EPHEMERIS_TYPE":0,"CLASSIFICATION_TYPE":"U","NORAD_CAT_ID":60035,"ELEMENT_SET_NO":999,"REV_AT_EPOCH":9675,"BSTAR":5.2458e-5,"MEAN_MOTION_DOT":1.195e-5,"MEAN_MOTION_DDOT":0},{"OBJECT_NAME":"STARLINK-31985","OBJECT_ID":"2024-111W","EPOCH":"2026-02-23T12:38:46.119552","MEAN_MOTION":15.30170235,"ECCENTRICITY":0.000116,"INCLINATION":53.1614,"RA_OF_ASC_NODE":141.5117,"ARG_OF_PERICENTER":79.7396,"MEAN_ANOMALY":280.3736,"EPHEMERIS_TYPE":0,"CLASSIFICATION_TYPE":"U","NORAD_CAT_ID":60036,"ELEMENT_SET_NO":999,"REV_AT_EPOCH":9680,"BSTAR":-8.2005171e-5,"MEAN_MOTION_DOT":-2.785e-5,"MEAN_MOTION_DDOT":0},{"OBJECT_NAME":"STARLINK-31918","OBJECT_ID":"2024-111X","EPOCH":"2026-02-23T11:56:10.833504","MEAN_MOTION":15.30198373,"ECCENTRICITY":0.0001075,"INCLINATION":53.1595,"RA_OF_ASC_NODE":141.3274,"ARG_OF_PERICENTER":84.5256,"MEAN_ANOMALY":275.5867,"EPHEMERIS_TYPE":0,"CLASSIFICATION_TYPE":"U","NORAD_CAT_ID":60037,"ELEMENT_SET_NO":999,"REV_AT_EPOCH":9679,"BSTAR":9.0226e-6,"MEAN_MOTION_DOT":-9.2e-7,"MEAN_MOTION_DDOT":0},{"OBJECT_NAME":"STARLINK-11129 [DTC]","OBJECT_ID":"2024-112A","EPOCH":"2026-02-23T18:59:36.948768","MEAN_MOTION":15.69690221,"ECCENTRICITY":0.0001199,"INCLINATION":53.1591,"RA_OF_ASC_NODE":335.1114,"ARG_OF_PERICENTER":65.5501,"MEAN_ANOMALY":294.5642,"EPHEMERIS_TYPE":0,"CLASSIFICATION_TYPE":"U","NORAD_CAT_ID":60038,"ELEMENT_SET_NO":999,"REV_AT_EPOCH":9879,"BSTAR":3.2156e-5,"MEAN_MOTION_DOT":3.305e-5,"MEAN_MOTION_DDOT":0},{"OBJECT_NAME":"STARLINK-11140 [DTC]","OBJECT_ID":"2024-112B","EPOCH":"2026-02-23T18:52:33.280320","MEAN_MOTION":15.69685836,"ECCENTRICITY":0.0001223,"INCLINATION":53.1569,"RA_OF_ASC_NODE":335.0816,"ARG_OF_PERICENTER":90.3848,"MEAN_ANOMALY":269.731,"EPHEMERIS_TYPE":0,"CLASSIFICATION_TYPE":"U","NORAD_CAT_ID":60039,"ELEMENT_SET_NO":999,"REV_AT_EPOCH":9879,"BSTAR":3.1069e-5,"MEAN_MOTION_DOT":3.173e-5,"MEAN_MOTION_DDOT":0},{"OBJECT_NAME":"STARLINK-11122 [DTC]","OBJECT_ID":"2024-112C","EPOCH":"2026-02-23T01:56:57.611040","MEAN_MOTION":15.69710453,"ECCENTRICITY":0.0001252,"INCLINATION":53.1571,"RA_OF_ASC_NODE":338.4998,"ARG_OF_PERICENTER":82.7565,"MEAN_ANOMALY":277.3595,"EPHEMERIS_TYPE":0,"CLASSIFICATION_TYPE":"U","NORAD_CAT_ID":60040,"ELEMENT_SET_NO":999,"REV_AT_EPOCH":9868,"BSTAR":3.5773e-6,"MEAN_MOTION_DOT":-1.55e-6,"MEAN_MOTION_DDOT":0},{"OBJECT_NAME":"STARLINK-11149 [DTC]","OBJECT_ID":"2024-112D","EPOCH":"2026-02-23T04:53:15.533664","MEAN_MOTION":15.69714605,"ECCENTRICITY":8.51e-5,"INCLINATION":53.1579,"RA_OF_ASC_NODE":337.8363,"ARG_OF_PERICENTER":114.768,"MEAN_ANOMALY":245.3426,"EPHEMERIS_TYPE":0,"CLASSIFICATION_TYPE":"U","NORAD_CAT_ID":60041,"ELEMENT_SET_NO":999,"REV_AT_EPOCH":9870,"BSTAR":3.2664e-6,"MEAN_MOTION_DOT":-1.92e-6,"MEAN_MOTION_DDOT":0},{"OBJECT_NAME":"STARLINK-11120 [DTC]","OBJECT_ID":"2024-112E","EPOCH":"2026-02-23T04:46:12.054432","MEAN_MOTION":15.69710162,"ECCENTRICITY":0.000108,"INCLINATION":53.158,"RA_OF_ASC_NODE":337.8033,"ARG_OF_PERICENTER":120.2743,"MEAN_ANOMALY":239.8382,"EPHEMERIS_TYPE":0,"CLASSIFICATION_TYPE":"U","NORAD_CAT_ID":60042,"ELEMENT_SET_NO":999,"REV_AT_EPOCH":9870,"BSTAR":-8.3645e-6,"MEAN_MOTION_DOT":-1.602e-5,"MEAN_MOTION_DDOT":0},{"OBJECT_NAME":"STARLINK-11086 [DTC]","OBJECT_ID":"2024-112F","EPOCH":"2026-02-23T18:24:17.669088","MEAN_MOTION":15.69694321,"ECCENTRICITY":0.0001198,"INCLINATION":53.1587,"RA_OF_ASC_NODE":334.9486,"ARG_OF_PERICENTER":96.0961,"MEAN_ANOMALY":264.0194,"EPHEMERIS_TYPE":0,"CLASSIFICATION_TYPE":"U","NORAD_CAT_ID":60043,"ELEMENT_SET_NO":999,"REV_AT_EPOCH":9879,"BSTAR":1.2024e-5,"MEAN_MOTION_DOT":8.67e-6,"MEAN_MOTION_DDOT":0},{"OBJECT_NAME":"STARLINK-11148 [DTC]","OBJECT_ID":"2024-112G","EPOCH":"2026-02-23T18:17:14.101728","MEAN_MOTION":15.69696057,"ECCENTRICITY":0.0001389,"INCLINATION":53.1587,"RA_OF_ASC_NODE":334.9129,"ARG_OF_PERICENTER":132.8022,"MEAN_ANOMALY":227.3113,"EPHEMERIS_TYPE":0,"CLASSIFICATION_TYPE":"U","NORAD_CAT_ID":60044,"ELEMENT_SET_NO":999,"REV_AT_EPOCH":9879,"BSTAR":1.718e-6,"MEAN_MOTION_DOT":-3.81e-6,"MEAN_MOTION_DDOT":0},{"OBJECT_NAME":"STARLINK-11116 [DTC]","OBJECT_ID":"2024-112H","EPOCH":"2026-02-23T04:24:57.801312","MEAN_MOTION":15.69714251,"ECCENTRICITY":0.00013122,"INCLINATION":53.1588,"RA_OF_ASC_NODE":337.7105,"ARG_OF_PERICENTER":90.4748,"MEAN_ANOMALY":269.6421,"EPHEMERIS_TYPE":0,"CLASSIFICATION_TYPE":"U","NORAD_CAT_ID":60045,"ELEMENT_SET_NO":999,"REV_AT_EPOCH":9870,"BSTAR":8.626104e-5,"MEAN_MOTION_DOT":9.876e-5,"MEAN_MOTION_DDOT":0},{"OBJECT_NAME":"STARLINK-11155 [DTC]","OBJECT_ID":"2024-112J","EPOCH":"2026-02-23T11:56:22.706592","MEAN_MOTION":15.69698426,"ECCENTRICITY":0.00012288,"INCLINATION":53.1582,"RA_OF_ASC_NODE":336.1051,"ARG_OF_PERICENTER":72.7687,"MEAN_ANOMALY":287.3466,"EPHEMERIS_TYPE":0,"CLASSIFICATION_TYPE":"U","NORAD_CAT_ID":60046,"ELEMENT_SET_NO":999,"REV_AT_EPOCH":9875,"BSTAR":-8.648883e-6,"MEAN_MOTION_DOT":-1.636e-5,"MEAN_MOTION_DDOT":0},{"OBJECT_NAME":"STARLINK-11163 [DTC]","OBJECT_ID":"2024-112K","EPOCH":"2026-02-23T17:56:03.043680","MEAN_MOTION":15.69675364,"ECCENTRICITY":0.0001424,"INCLINATION":53.16,"RA_OF_ASC_NODE":334.8207,"ARG_OF_PERICENTER":68.3693,"MEAN_ANOMALY":291.7476,"EPHEMERIS_TYPE":0,"CLASSIFICATION_TYPE":"U","NORAD_CAT_ID":60047,"ELEMENT_SET_NO":999,"REV_AT_EPOCH":9879,"BSTAR":3.0523e-5,"MEAN_MOTION_DOT":3.105e-5,"MEAN_MOTION_DDOT":0},{"OBJECT_NAME":"STARLINK-11135 [DTC]","OBJECT_ID":"2024-112L","EPOCH":"2026-02-23T11:28:06.866400","MEAN_MOTION":15.69710194,"ECCENTRICITY":0.00012314,"INCLINATION":53.1589,"RA_OF_ASC_NODE":335.9941,"ARG_OF_PERICENTER":112.1745,"MEAN_ANOMALY":247.9403,"EPHEMERIS_TYPE":0,"CLASSIFICATION_TYPE":"U","NORAD_CAT_ID":60048,"ELEMENT_SET_NO":999,"REV_AT_EPOCH":9875,"BSTAR":-1.1856185e-5,"MEAN_MOTION_DOT":-2.025e-5,"MEAN_MOTION_DDOT":0},{"OBJECT_NAME":"STARLINK-11151 [DTC]","OBJECT_ID":"2024-112M","EPOCH":"2026-02-23T11:42:14.634432","MEAN_MOTION":15.69704337,"ECCENTRICITY":0.00011522,"INCLINATION":53.1578,"RA_OF_ASC_NODE":336.0411,"ARG_OF_PERICENTER":74.4004,"MEAN_ANOMALY":285.7141,"EPHEMERIS_TYPE":0,"CLASSIFICATION_TYPE":"U","NORAD_CAT_ID":60049,"ELEMENT_SET_NO":999,"REV_AT_EPOCH":9875,"BSTAR":-8.421973e-6,"MEAN_MOTION_DOT":-1.608e-5,"MEAN_MOTION_DDOT":0},{"OBJECT_NAME":"STARLINK-11137 [DTC]","OBJECT_ID":"2024-112N","EPOCH":"2026-02-23T19:13:35.132448","MEAN_MOTION":15.69695881,"ECCENTRICITY":0.0001362,"INCLINATION":53.1593,"RA_OF_ASC_NODE":334.4344,"ARG_OF_PERICENTER":103.9072,"MEAN_ANOMALY":256.2098,"EPHEMERIS_TYPE":0,"CLASSIFICATION_TYPE":"U","NORAD_CAT_ID":60050,"ELEMENT_SET_NO":999,"REV_AT_EPOCH":9880,"BSTAR":4.5259e-5,"MEAN_MOTION_DOT":4.894e-5,"MEAN_MOTION_DDOT":0}]
